ELYSIUM STAR 2 & LFF    
1 43760U 18099C   24166.46703240  .00033596  00000+0  13088-2 0  9999
2 43760  97.5163 234.0515 0005319 266.3871  93.6758 15.25887542302824
